farmer_id,name,district,upazila,village,land_size,irrigation_type,tractor_available,labor_availability,investment_capacity,phone
F1000,কৃষক_1,খুলনা,গফরগাঁও,গ্রাম_2,5.65,বৃষ্টিনির্ভর,True,মধ্যম,"২,০০,০০০ টাকা",01827872589
F1001,কৃষক_2,ময়মনসিংহ,বিশ্বম্ভরপুর,গ্রাম_3,7.88,নলকূপ,False,নিম্ন,"৫,০০,০০০ টাকা+",01459396148
F1002,কৃষক_3,বরিশাল,বিশ্বম্ভরপুর,গ্রাম_5,3.91,নলকূপ,True,উচ্চ,"১,০০,০০০ টাকা",01736959409
F1003,কৃষক_4,কুষ্টিয়া,গফরগাঁও,গ্রাম_2,2.09,নদী,False,নিম্ন,"২,০০,০০০ টাকা",01683973061
F1004,কৃষক_5,ময়মনসিংহ,আগৈলঝারা,গ্রাম_1,6.31,নদী,True,উচ্চ,"৫০,০০০ টাকা",01921413059
F1005,কৃষক_6,ঢাকা,আগৈলঝারা,গ্রাম_3,8.89,পাম্প,False,নিম্ন,"১,০০,০০০ টাকা",01996414919
F1006,কৃষক_7,সিলেট,মিঠাপুকুর,গ্রাম_3,7.33,নদী,False,নিম্ন,"১,০০,০০০ টাকা",01834434373
F1007,কৃষক_8,কুষ্টিয়া,বোয়ালখালী,গ্রাম_4,6.0,নলকূপ,False,নিম্ন,"৫,০০,০০০ টাকা+",01552187483
F1008,কৃষক_9,কুষ্টিয়া,সদর,গ্রাম_5,0.7,বৃষ্টিনির্ভর,False,মধ্যম,"৫,০০,০০০ টাকা+",01349920074
F1009,কৃষক_10,ময়মনসিংহ,মিরপুর,গ্রাম_3,4.63,পাম্প,False,উচ্চ,"২,০০,০০০ টাকা",01619987667
F1010,কৃষক_11,খুলনা,ডুমুরিয়া,গ্রাম_2,5.81,বৃষ্টিনির্ভর,False,মধ্যম,"১,০০,০০০ টাকা",01704414982
F1011,কৃষক_12,বরিশাল,আগৈলঝারা,গ্রাম_2,9.86,নদী,False,উচ্চ,"২,০০,০০০ টাকা",01469250986
F1012,কৃষক_13,ময়মনসিংহ,শাজাহানপুর,গ্রাম_5,4.54,নলকূপ,False,মধ্যম,"২,০০,০০০ টাকা",01317576405
F1013,কৃষক_14,রাজশাহী,মিঠাপুকুর,গ্রাম_4,3.11,পুকুর,True,নিম্ন,"১,০০,০০০ টাকা",01631371232
F1014,কৃষক_15,বগুড়া,শাজাহানপুর,গ্রাম_5,7.19,পুকুর,True,মধ্যম,"৫,০০,০০০ টাকা+",01938826482
F1015,কৃষক_16,ঢাকা,আগৈলঝারা,গ্রাম_2,1.06,পুকুর,True,মধ্যম,"৫০,০০০ টাকা",01739761939
F1016,কৃষক_17,ময়মনসিংহ,বোয়ালখালী,গ্রাম_4,3.04,পাম্প,True,মধ্যম,"৫০,০০০ টাকা",01805843356
F1017,কৃষক_18,রাজশাহী,মিরপুর,গ্রাম_4,1.11,বৃষ্টিনির্ভর,False,উচ্চ,"৫,০০,০০০ টাকা+",01770834358
F1018,কৃষক_19,ঢাকা,বোয়ালখালী,গ্রাম_3,0.83,নলকূপ,True,উচ্চ,"৫,০০,০০০ টাকা+",01408730537
F1019,কৃষক_20,সিলেট,চারঘাট,গ্রাম_4,4.68,পাম্প,False,উচ্চ,"২,০০,০০০ টাকা",01830611266
F1020,কৃষক_21,রংপুর,শাজাহানপুর,গ্রাম_1,2.84,বৃষ্টিনির্ভর,False,মধ্যম,"৫,০০,০০০ টাকা+",01796634266
F1021,কৃষক_22,বগুড়া,চারঘাট,গ্রাম_5,2.54,নদী,False,উচ্চ,"৫০,০০০ টাকা",01401168842
F1022,কৃষক_23,চট্টগ্রাম,গফরগাঁও,গ্রাম_5,5.81,নলকূপ,False,উচ্চ,"১,০০,০০০ টাকা",01922816835
F1023,কৃষক_24,রংপুর,মিরপুর,গ্রাম_1,4.45,পুকুর,True,নিম্ন,"৫,০০,০০০ টাকা+",01408278105
F1024,কৃষক_25,ময়মনসিংহ,মিরপুর,গ্রাম_4,3.49,পাম্প,True,নিম্ন,"১,০০,০০০ টাকা",01995588121
F1025,কৃষক_26,বরিশাল,মিঠাপুকুর,গ্রাম_2,2.24,নদী,True,উচ্চ,"১,০০,০০০ টাকা",01970591781
F1026,কৃষক_27,খুলনা,বিশ্বম্ভরপুর,গ্রাম_3,5.28,পাম্প,True,উচ্চ,"১,০০,০০০ টাকা",01665224126
F1027,কৃষক_28,রংপুর,গফরগাঁও,গ্রাম_3,1.77,পাম্প,True,উচ্চ,"৫,০০,০০০ টাকা+",01470226635
F1028,কৃষক_29,কুষ্টিয়া,শাজাহানপুর,গ্রাম_5,6.61,পুকুর,True,উচ্চ,"৫,০০,০০০ টাকা+",01379525444
F1029,কৃষক_30,বরিশাল,ডুমুরিয়া,গ্রাম_5,2.72,পাম্প,True,উচ্চ,"১,০০,০০০ টাকা",01956711575
F1030,কৃষক_31,কুষ্টিয়া,চারঘাট,গ্রাম_1,2.29,নদী,True,উচ্চ,"২,০০,০০০ টাকা",01780541067
F1031,কৃষক_32,চট্টগ্রাম,সদর,গ্রাম_5,3.3,পাম্প,False,মধ্যম,"৫০,০০০ টাকা",01912067721
F1032,কৃষক_33,চট্টগ্রাম,বিশ্বম্ভরপুর,গ্রাম_4,2.06,নদী,True,মধ্যম,"৫,০০,০০০ টাকা+",01512962143
F1033,কৃষক_34,খুলনা,আগৈলঝারা,গ্রাম_5,0.82,পাম্প,False,নিম্ন,"৫,০০,০০০ টাকা+",01651795060
F1034,কৃষক_35,খুলনা,মিরপুর,গ্রাম_4,9.81,পাম্প,False,উচ্চ,"১,০০,০০০ টাকা",01493905440
F1035,কৃষক_36,চট্টগ্রাম,চারঘাট,গ্রাম_1,7.02,পাম্প,False,নিম্ন,"১,০০,০০০ টাকা",01483408154
F1036,কৃষক_37,চট্টগ্রাম,মিরপুর,গ্রাম_3,4.98,নলকূপ,False,নিম্ন,"২,০০,০০০ টাকা",01608625671
F1037,কৃষক_38,বরিশাল,বোয়ালখালী,গ্রাম_4,9.12,নদী,True,উচ্চ,"৫,০০,০০০ টাকা+",01910965057
F1038,কৃষক_39,বগুড়া,ডুমুরিয়া,গ্রাম_1,8.77,পাম্প,False,নিম্ন,"২,০০,০০০ টাকা",01630679994
F1039,কৃষক_40,বগুড়া,ডুমুরিয়া,গ্রাম_1,9.7,পুকুর,False,উচ্চ,"৫,০০,০০০ টাকা+",01541012550
F1040,কৃষক_41,খুলনা,বিশ্বম্ভরপুর,গ্রাম_1,7.23,নলকূপ,True,নিম্ন,"২,০০,০০০ টাকা",01559875942
F1041,কৃষক_42,বগুড়া,মিরপুর,গ্রাম_5,7.24,পুকুর,True,মধ্যম,"২,০০,০০০ টাকা",01909555664
F1042,কৃষক_43,রাজশাহী,গফরগাঁও,গ্রাম_4,1.17,বৃষ্টিনির্ভর,True,উচ্চ,"১,০০,০০০ টাকা",01906665696
F1043,কৃষক_44,বগুড়া,গফরগাঁও,গ্রাম_1,5.57,নলকূপ,True,উচ্চ,"২,০০,০০০ টাকা",01515426915
F1044,কৃষক_45,রংপুর,মিরপুর,গ্রাম_3,5.68,পুকুর,False,নিম্ন,"৫০,০০০ টাকা",01936708593
F1045,কৃষক_46,কুষ্টিয়া,মিরপুর,গ্রাম_2,2.35,পুকুর,True,নিম্ন,"৫,০০,০০০ টাকা+",01504403267
F1046,কৃষক_47,কুষ্টিয়া,ডুমুরিয়া,গ্রাম_2,1.73,নদী,False,মধ্যম,"১,০০,০০০ টাকা",01656891178
F1047,কৃষক_48,সিলেট,শাজাহানপুর,গ্রাম_1,1.21,নলকূপ,False,মধ্যম,"১,০০,০০০ টাকা",01534087227
F1048,কৃষক_49,রংপুর,সদর,গ্রাম_1,7.15,পাম্প,True,নিম্ন,"৫,০০,০০০ টাকা+",01439450325
F1049,কৃষক_50,সিলেট,শাজাহানপুর,গ্রাম_2,6.21,পুকুর,True,উচ্চ,"১,০০,০০০ টাকা",01398063262
F1050,কৃষক_51,সিলেট,চারঘাট,গ্রাম_3,2.08,পাম্প,True,উচ্চ,"৫০,০০০ টাকা",01645216696
F1051,কৃষক_52,রাজশাহী,আগৈলঝারা,গ্রাম_5,9.27,পাম্প,True,উচ্চ,"৫০,০০০ টাকা",01369462729
F1052,কৃষক_53,চট্টগ্রাম,আগৈলঝারা,গ্রাম_4,5.6,পাম্প,True,উচ্চ,"৫,০০,০০০ টাকা+",01918293557
F1053,কৃষক_54,ময়মনসিংহ,আগৈলঝারা,গ্রাম_3,3.89,নদী,False,উচ্চ,"৫,০০,০০০ টাকা+",01391351774
F1054,কৃষক_55,বরিশাল,মিরপুর,গ্রাম_5,1.11,নলকূপ,True,নিম্ন,"৫,০০,০০০ টাকা+",01502053248
F1055,কৃষক_56,রাজশাহী,শাজাহানপুর,গ্রাম_4,9.64,নদী,False,উচ্চ,"১,০০,০০০ টাকা",01469525521
F1056,কৃষক_57,খুলনা,মিঠাপুকুর,গ্রাম_4,3.02,পাম্প,True,মধ্যম,"১,০০,০০০ টাকা",01854104849
F1057,কৃষক_58,বগুড়া,ডুমুরিয়া,গ্রাম_3,1.5,নদী,True,নিম্ন,"২,০০,০০০ টাকা",01699182456
F1058,কৃষক_59,ময়মনসিংহ,সদর,গ্রাম_5,8.77,নলকূপ,False,উচ্চ,"৫,০০,০০০ টাকা+",01941728822
F1059,কৃষক_60,ময়মনসিংহ,মিঠাপুকুর,গ্রাম_2,2.42,নদী,True,নিম্ন,"৫,০০,০০০ টাকা+",01607389567
F1060,কৃষক_61,চট্টগ্রাম,বিশ্বম্ভরপুর,গ্রাম_1,2.69,বৃষ্টিনির্ভর,True,উচ্চ,"৫,০০,০০০ টাকা+",01377816105
F1061,কৃষক_62,ঢাকা,মিঠাপুকুর,গ্রাম_2,5.34,নলকূপ,True,মধ্যম,"১,০০,০০০ টাকা",01706129047
F1062,কৃষক_63,খুলনা,মিঠাপুকুর,গ্রাম_3,3.5,বৃষ্টিনির্ভর,True,নিম্ন,"২,০০,০০০ টাকা",01460667200
F1063,কৃষক_64,সিলেট,সদর,গ্রাম_4,2.82,নদী,False,উচ্চ,"৫০,০০০ টাকা",01953672803
F1064,কৃষক_65,রংপুর,সদর,গ্রাম_5,6.94,নদী,True,উচ্চ,"২,০০,০০০ টাকা",01792207496
F1065,কৃষক_66,কুষ্টিয়া,আগৈলঝারা,গ্রাম_3,5.33,পাম্প,False,নিম্ন,"৫০,০০০ টাকা",01644741815
F1066,কৃষক_67,ঢাকা,শাজাহানপুর,গ্রাম_4,2.49,বৃষ্টিনির্ভর,False,মধ্যম,"১,০০,০০০ টাকা",01781931739
F1067,কৃষক_68,চট্টগ্রাম,বোয়ালখালী,গ্রাম_3,3.26,নলকূপ,False,নিম্ন,"৫০,০০০ টাকা",01336529631
F1068,কৃষক_69,ময়মনসিংহ,বোয়ালখালী,গ্রাম_5,4.83,নলকূপ,False,মধ্যম,"৫০,০০০ টাকা",01347188229
F1069,কৃষক_70,বগুড়া,বিশ্বম্ভরপুর,গ্রাম_2,8.78,বৃষ্টিনির্ভর,True,উচ্চ,"১,০০,০০০ টাকা",01652939198
F1070,কৃষক_71,বগুড়া,গফরগাঁও,গ্রাম_5,8.67,নদী,True,উচ্চ,"২,০০,০০০ টাকা",01988807752
F1071,কৃষক_72,চট্টগ্রাম,শাজাহানপুর,গ্রাম_5,3.93,নদী,False,মধ্যম,"১,০০,০০০ টাকা",01996032666
F1072,কৃষক_73,কুষ্টিয়া,সদর,গ্রাম_1,3.64,পুকুর,False,মধ্যম,"৫০,০০০ টাকা",01487522022
F1073,কৃষক_74,খুলনা,মিঠাপুকুর,গ্রাম_3,7.85,পুকুর,False,মধ্যম,"২,০০,০০০ টাকা",01625824814
F1074,কৃষক_75,কুষ্টিয়া,সদর,গ্রাম_4,5.88,পুকুর,False,মধ্যম,"২,০০,০০০ টাকা",01501597854
F1075,কৃষক_76,কুষ্টিয়া,আগৈলঝারা,গ্রাম_4,8.67,নদী,True,উচ্চ,"৫০,০০০ টাকা",01838855709
F1076,কৃষক_77,চট্টগ্রাম,ডুমুরিয়া,গ্রাম_3,4.72,নদী,True,মধ্যম,"৫০,০০০ টাকা",01965540239
F1077,কৃষক_78,সিলেট,ডুমুরিয়া,গ্রাম_2,9.42,নলকূপ,False,উচ্চ,"১,০০,০০০ টাকা",01659976246
F1078,কৃষক_79,রংপুর,ডুমুরিয়া,গ্রাম_2,5.06,নলকূপ,False,নিম্ন,"৫০,০০০ টাকা",01965661005
F1079,কৃষক_80,রংপুর,গফরগাঁও,গ্রাম_2,4.36,নলকূপ,True,নিম্ন,"২,০০,০০০ টাকা",01928623410
F1080,কৃষক_81,রংপুর,গফরগাঁও,গ্রাম_5,3.29,পাম্প,True,নিম্ন,"২,০০,০০০ টাকা",01651952534
F1081,কৃষক_82,সিলেট,আগৈলঝারা,গ্রাম_2,4.27,পুকুর,True,মধ্যম,"৫,০০,০০০ টাকা+",01326455634
F1082,কৃষক_83,খুলনা,চারঘাট,গ্রাম_3,7.59,পাম্প,True,নিম্ন,"২,০০,০০০ টাকা",01945948248
F1083,কৃষক_84,ময়মনসিংহ,ডুমুরিয়া,গ্রাম_4,5.77,বৃষ্টিনির্ভর,False,মধ্যম,"১,০০,০০০ টাকা",01319135759
F1084,কৃষক_85,রংপুর,আগৈলঝারা,গ্রাম_5,1.44,বৃষ্টিনির্ভর,False,নিম্ন,"৫,০০,০০০ টাকা+",01729851372
F1085,কৃষক_86,কুষ্টিয়া,বোয়ালখালী,গ্রাম_4,8.13,বৃষ্টিনির্ভর,True,উচ্চ,"৫,০০,০০০ টাকা+",01577639848
F1086,কৃষক_87,সিলেট,গফরগাঁও,গ্রাম_2,7.29,নদী,True,উচ্চ,"২,০০,০০০ টাকা",01385210104
F1087,কৃষক_88,সিলেট,শাজাহানপুর,গ্রাম_4,3.97,পাম্প,False,মধ্যম,"৫০,০০০ টাকা",01405953883
F1088,কৃষক_89,সিলেট,শাজাহানপুর,গ্রাম_4,1.15,নলকূপ,False,উচ্চ,"১,০০,০০০ টাকা",01766722444
F1089,কৃষক_90,ময়মনসিংহ,ডুমুরিয়া,গ্রাম_1,2.23,পাম্প,False,নিম্ন,"৫,০০,০০০ টাকা+",01536854526
F1090,কৃষক_91,কুষ্টিয়া,সদর,গ্রাম_3,8.47,পাম্প,False,উচ্চ,"২,০০,০০০ টাকা",01805606239
F1091,কৃষক_92,চট্টগ্রাম,মিরপুর,গ্রাম_5,5.32,পাম্প,True,নিম্ন,"৫০,০০০ টাকা",01710974156
F1092,কৃষক_93,কুষ্টিয়া,মিঠাপুকুর,গ্রাম_5,3.35,নদী,True,উচ্চ,"২,০০,০০০ টাকা",01510547726
F1093,কৃষক_94,ময়মনসিংহ,আগৈলঝারা,গ্রাম_2,5.38,নলকূপ,False,মধ্যম,"৫০,০০০ টাকা",01709840883
F1094,কৃষক_95,খুলনা,বোয়ালখালী,গ্রাম_1,1.0,পুকুর,True,নিম্ন,"৫০,০০০ টাকা",01359823759
F1095,কৃষক_96,ঢাকা,মিঠাপুকুর,গ্রাম_3,8.83,নদী,True,উচ্চ,"৫০,০০০ টাকা",01327638557
F1096,কৃষক_97,ময়মনসিংহ,সদর,গ্রাম_2,5.83,পুকুর,True,নিম্ন,"২,০০,০০০ টাকা",01493936699
F1097,কৃষক_98,চট্টগ্রাম,সদর,গ্রাম_2,7.38,পাম্প,True,নিম্ন,"২,০০,০০০ টাকা",01751207578
F1098,কৃষক_99,খুলনা,গফরগাঁও,গ্রাম_2,0.6,পাম্প,False,উচ্চ,"২,০০,০০০ টাকা",01978772727
F1099,কৃষক_100,বগুড়া,বিশ্বম্ভরপুর,গ্রাম_2,3.53,পুকুর,False,মধ্যম,"২,০০,০০০ টাকা",01353381854
F1100,কৃষক_101,ঢাকা,সদর,গ্রাম_2,6.09,নদী,True,উচ্চ,"১,০০,০০০ টাকা",01911975398
F1101,কৃষক_102,বরিশাল,চারঘাট,গ্রাম_4,7.24,পাম্প,True,নিম্ন,"২,০০,০০০ টাকা",01920304043
F1102,কৃষক_103,কুষ্টিয়া,মিঠাপুকুর,গ্রাম_4,3.53,নদী,False,মধ্যম,"৫০,০০০ টাকা",01425092545
F1103,কৃষক_104,সিলেট,বিশ্বম্ভরপুর,গ্রাম_3,0.99,বৃষ্টিনির্ভর,True,মধ্যম,"১,০০,০০০ টাকা",01435431316
F1104,কৃষক_105,ময়মনসিংহ,বোয়ালখালী,গ্রাম_5,7.17,নদী,False,নিম্ন,"৫,০০,০০০ টাকা+",01980735997
F1105,কৃষক_106,রংপুর,বোয়ালখালী,গ্রাম_4,9.24,বৃষ্টিনির্ভর,True,উচ্চ,"৫০,০০০ টাকা",01795251759
F1106,কৃষক_107,ময়মনসিংহ,শাজাহানপুর,গ্রাম_3,8.95,পাম্প,False,নিম্ন,"৫০,০০০ টাকা",01759920027
F1107,কৃষক_108,কুষ্টিয়া,চারঘাট,গ্রাম_5,0.7,পুকুর,True,মধ্যম,"২,০০,০০০ টাকা",01547891189
F1108,কৃষক_109,রাজশাহী,গফরগাঁও,গ্রাম_2,7.04,নদী,False,উচ্চ,"১,০০,০০০ টাকা",01573634047
F1109,কৃষক_110,চট্টগ্রাম,ডুমুরিয়া,গ্রাম_5,9.52,পুকুর,True,নিম্ন,"৫,০০,০০০ টাকা+",01618425568
F1110,কৃষক_111,ঢাকা,মিঠাপুকুর,গ্রাম_4,4.73,পাম্প,False,মধ্যম,"৫,০০,০০০ টাকা+",01673456804
F1111,কৃষক_112,ময়মনসিংহ,বোয়ালখালী,গ্রাম_4,7.41,বৃষ্টিনির্ভর,False,নিম্ন,"৫,০০,০০০ টাকা+",01423149514
F1112,কৃষক_113,রংপুর,চারঘাট,গ্রাম_1,9.14,নদী,True,মধ্যম,"৫,০০,০০০ টাকা+",01304544465
F1113,কৃষক_114,ঢাকা,সদর,গ্রাম_3,4.23,পুকুর,True,মধ্যম,"২,০০,০০০ টাকা",01706745933
F1114,কৃষক_115,বগুড়া,বিশ্বম্ভরপুর,গ্রাম_1,5.63,পাম্প,True,উচ্চ,"৫০,০০০ টাকা",01574929755
F1115,কৃষক_116,সিলেট,বোয়ালখালী,গ্রাম_2,4.59,নলকূপ,True,উচ্চ,"৫০,০০০ টাকা",01538041424
F1116,কৃষক_117,সিলেট,চারঘাট,গ্রাম_4,6.34,নলকূপ,False,উচ্চ,"২,০০,০০০ টাকা",01929386740
F1117,কৃষক_118,রংপুর,শাজাহানপুর,গ্রাম_4,8.74,নলকূপ,True,নিম্ন,"৫০,০০০ টাকা",01834488286
F1118,কৃষক_119,কুষ্টিয়া,চারঘাট,গ্রাম_4,6.28,নলকূপ,False,মধ্যম,"৫০,০০০ টাকা",01311254837
F1119,কৃষক_120,বগুড়া,ডুমুরিয়া,গ্রাম_5,4.19,পুকুর,True,মধ্যম,"৫,০০,০০০ টাকা+",01506930185
F1120,কৃষক_121,কুষ্টিয়া,চারঘাট,গ্রাম_5,1.82,পুকুর,True,নিম্ন,"৫০,০০০ টাকা",01503986517
F1121,কৃষক_122,ময়মনসিংহ,শাজাহানপুর,গ্রাম_5,0.5,বৃষ্টিনির্ভর,False,মধ্যম,"৫,০০,০০০ টাকা+",01740342469
F1122,কৃষক_123,বরিশাল,বিশ্বম্ভরপুর,গ্রাম_1,4.57,পুকুর,True,নিম্ন,"১,০০,০০০ টাকা",01808765287
F1123,কৃষক_124,ময়মনসিংহ,বিশ্বম্ভরপুর,গ্রাম_1,3.23,নদী,False,মধ্যম,"৫,০০,০০০ টাকা+",01891804990
F1124,কৃষক_125,রাজশাহী,শাজাহানপুর,গ্রাম_5,5.86,পুকুর,True,নিম্ন,"২,০০,০০০ টাকা",01512945001
F1125,কৃষক_126,রাজশাহী,বিশ্বম্ভরপুর,গ্রাম_5,7.66,নলকূপ,False,উচ্চ,"৫০,০০০ টাকা",01882819729
F1126,কৃষক_127,কুষ্টিয়া,শাজাহানপুর,গ্রাম_1,5.62,পাম্প,True,উচ্চ,"২,০০,০০০ টাকা",01784105340
F1127,কৃষক_128,রংপুর,বিশ্বম্ভরপুর,গ্রাম_4,4.5,বৃষ্টিনির্ভর,False,নিম্ন,"২,০০,০০০ টাকা",01889657334
F1128,কৃষক_129,খুলনা,গফরগাঁও,গ্রাম_3,2.84,পুকুর,True,উচ্চ,"৫০,০০০ টাকা",01497849167
F1129,কৃষক_130,বরিশাল,মিঠাপুকুর,গ্রাম_2,3.31,পাম্প,False,উচ্চ,"২,০০,০০০ টাকা",01627814764
F1130,কৃষক_131,খুলনা,ডুমুরিয়া,গ্রাম_5,6.49,নলকূপ,False,নিম্ন,"১,০০,০০০ টাকা",01320700564
F1131,কৃষক_132,কুষ্টিয়া,আগৈলঝারা,গ্রাম_3,9.55,বৃষ্টিনির্ভর,True,মধ্যম,"১,০০,০০০ টাকা",01930716322
F1132,কৃষক_133,খুলনা,মিরপুর,গ্রাম_5,5.78,নদী,True,নিম্ন,"৫০,০০০ টাকা",01413275009
F1133,কৃষক_134,রংপুর,মিরপুর,গ্রাম_2,5.45,নদী,True,মধ্যম,"৫,০০,০০০ টাকা+",01732202837
F1134,কৃষক_135,কুষ্টিয়া,ডুমুরিয়া,গ্রাম_5,4.42,পাম্প,True,উচ্চ,"১,০০,০০০ টাকা",01760929516
F1135,কৃষক_136,ঢাকা,শাজাহানপুর,গ্রাম_2,4.88,নলকূপ,True,নিম্ন,"৫,০০,০০০ টাকা+",01903114898
F1136,কৃষক_137,খুলনা,সদর,গ্রাম_1,6.82,নলকূপ,True,উচ্চ,"৫,০০,০০০ টাকা+",01939398904
F1137,কৃষক_138,কুষ্টিয়া,সদর,গ্রাম_5,2.91,নলকূপ,True,নিম্ন,"২,০০,০০০ টাকা",01859569780
F1138,কৃষক_139,ময়মনসিংহ,মিঠাপুকুর,গ্রাম_3,2.05,নদী,False,নিম্ন,"৫,০০,০০০ টাকা+",01611183449
F1139,কৃষক_140,রাজশাহী,বিশ্বম্ভরপুর,গ্রাম_2,7.36,নদী,True,মধ্যম,"৫০,০০০ টাকা",01391178997
F1140,কৃষক_141,চট্টগ্রাম,চারঘাট,গ্রাম_3,9.4,নদী,False,নিম্ন,"৫,০০,০০০ টাকা+",01972418190
F1141,কৃষক_142,চট্টগ্রাম,বোয়ালখালী,গ্রাম_2,0.8,পাম্প,False,উচ্চ,"৫০,০০০ টাকা",01912524827
F1142,কৃষক_143,সিলেট,বিশ্বম্ভরপুর,গ্রাম_2,6.72,নদী,False,উচ্চ,"১,০০,০০০ টাকা",01838365504
F1143,কৃষক_144,খুলনা,বিশ্বম্ভরপুর,গ্রাম_5,7.62,নদী,False,মধ্যম,"৫০,০০০ টাকা",01449100791
F1144,কৃষক_145,বরিশাল,আগৈলঝারা,গ্রাম_4,6.83,বৃষ্টিনির্ভর,True,নিম্ন,"১,০০,০০০ টাকা",01916432645
F1145,কৃষক_146,ঢাকা,বিশ্বম্ভরপুর,গ্রাম_4,4.35,নদী,False,নিম্ন,"১,০০,০০০ টাকা",01564597698
F1146,কৃষক_147,রংপুর,আগৈলঝারা,গ্রাম_1,1.24,বৃষ্টিনির্ভর,True,উচ্চ,"১,০০,০০০ টাকা",01667487517
F1147,কৃষক_148,বগুড়া,সদর,গ্রাম_1,2.64,পুকুর,True,মধ্যম,"২,০০,০০০ টাকা",01847366146
F1148,কৃষক_149,ময়মনসিংহ,চারঘাট,গ্রাম_1,6.0,পুকুর,True,মধ্যম,"১,০০,০০০ টাকা",01378550979
F1149,কৃষক_150,কুষ্টিয়া,ডুমুরিয়া,গ্রাম_2,1.73,নলকূপ,True,মধ্যম,"৫০,০০০ টাকা",01890622080
F1150,কৃষক_151,রংপুর,মিঠাপুকুর,গ্রাম_4,1.33,পাম্প,False,মধ্যম,"২,০০,০০০ টাকা",01890334822
F1151,কৃষক_152,খুলনা,চারঘাট,গ্রাম_1,6.32,নদী,False,উচ্চ,"৫,০০,০০০ টাকা+",01898750289
F1152,কৃষক_153,রংপুর,গফরগাঁও,গ্রাম_3,6.2,বৃষ্টিনির্ভর,True,নিম্ন,"১,০০,০০০ টাকা",01812643501
F1153,কৃষক_154,রাজশাহী,মিরপুর,গ্রাম_2,9.77,নদী,False,মধ্যম,"৫০,০০০ টাকা",01556178721
F1154,কৃষক_155,ঢাকা,বোয়ালখালী,গ্রাম_1,5.17,নলকূপ,True,উচ্চ,"১,০০,০০০ টাকা",01678182232
F1155,কৃষক_156,চট্টগ্রাম,মিঠাপুকুর,গ্রাম_1,8.36,নলকূপ,True,মধ্যম,"১,০০,০০০ টাকা",01482911209
F1156,কৃষক_157,বগুড়া,শাজাহানপুর,গ্রাম_4,5.3,নলকূপ,True,নিম্ন,"২,০০,০০০ টাকা",01582835108
F1157,কৃষক_158,ঢাকা,সদর,গ্রাম_1,1.62,নলকূপ,False,মধ্যম,"৫,০০,০০০ টাকা+",01553571312
F1158,কৃষক_159,সিলেট,মিরপুর,গ্রাম_4,2.71,পুকুর,False,নিম্ন,"২,০০,০০০ টাকা",01539186978
F1159,কৃষক_160,খুলনা,মিঠাপুকুর,গ্রাম_5,1.7,বৃষ্টিনির্ভর,True,মধ্যম,"২,০০,০০০ টাকা",01917542209
F1160,কৃষক_161,কুষ্টিয়া,মিঠাপুকুর,গ্রাম_5,1.91,নলকূপ,True,উচ্চ,"৫,০০,০০০ টাকা+",01443497034
F1161,কৃষক_162,কুষ্টিয়া,শাজাহানপুর,গ্রাম_2,4.55,নদী,False,মধ্যম,"১,০০,০০০ টাকা",01669832049
F1162,কৃষক_163,চট্টগ্রাম,বোয়ালখালী,গ্রাম_2,3.04,পুকুর,True,নিম্ন,"৫,০০,০০০ টাকা+",01482086956
F1163,কৃষক_164,রাজশাহী,বিশ্বম্ভরপুর,গ্রাম_5,2.86,পাম্প,True,নিম্ন,"১,০০,০০০ টাকা",01492413000
F1164,কৃষক_165,বগুড়া,মিঠাপুকুর,গ্রাম_4,2.08,নদী,True,নিম্ন,"২,০০,০০০ টাকা",01970067166
F1165,কৃষক_166,বরিশাল,সদর,গ্রাম_3,7.33,পুকুর,True,উচ্চ,"৫,০০,০০০ টাকা+",01384028100
F1166,কৃষক_167,খুলনা,শাজাহানপুর,গ্রাম_4,2.93,বৃষ্টিনির্ভর,True,মধ্যম,"১,০০,০০০ টাকা",01694571094
F1167,কৃষক_168,কুষ্টিয়া,মিঠাপুকুর,গ্রাম_1,2.13,নদী,False,নিম্ন,"৫,০০,০০০ টাকা+",01998154596
F1168,কৃষক_169,ময়মনসিংহ,গফরগাঁও,গ্রাম_1,5.43,পাম্প,True,মধ্যম,"২,০০,০০০ টাকা",01568057997
F1169,কৃষক_170,চট্টগ্রাম,শাজাহানপুর,গ্রাম_2,8.14,নলকূপ,True,নিম্ন,"১,০০,০০০ টাকা",01981324278
F1170,কৃষক_171,বগুড়া,চারঘাট,গ্রাম_3,4.66,বৃষ্টিনির্ভর,False,উচ্চ,"১,০০,০০০ টাকা",01940734835
F1171,কৃষক_172,কুষ্টিয়া,গফরগাঁও,গ্রাম_3,9.66,বৃষ্টিনির্ভর,False,মধ্যম,"৫,০০,০০০ টাকা+",01946420406
F1172,কৃষক_173,কুষ্টিয়া,শাজাহানপুর,গ্রাম_5,8.2,নলকূপ,False,নিম্ন,"২,০০,০০০ টাকা",01831289156
F1173,কৃষক_174,রাজশাহী,আগৈলঝারা,গ্রাম_3,8.57,নলকূপ,True,উচ্চ,"৫০,০০০ টাকা",01327471641
F1174,কৃষক_175,কুষ্টিয়া,গফরগাঁও,গ্রাম_3,4.75,নদী,False,নিম্ন,"২,০০,০০০ টাকা",01561886376
F1175,কৃষক_176,কুষ্টিয়া,বোয়ালখালী,গ্রাম_3,9.83,নদী,False,নিম্ন,"৫,০০,০০০ টাকা+",01432946919
F1176,কৃষক_177,রাজশাহী,গফরগাঁও,গ্রাম_4,4.04,নদী,True,নিম্ন,"৫,০০,০০০ টাকা+",01805586210
F1177,কৃষক_178,রাজশাহী,মিঠাপুকুর,গ্রাম_5,4.6,নদী,False,মধ্যম,"২,০০,০০০ টাকা",01678938803
F1178,কৃষক_179,রংপুর,আগৈলঝারা,গ্রাম_2,3.75,নদী,True,উচ্চ,"২,০০,০০০ টাকা",01566862009
F1179,কৃষক_180,সিলেট,মিরপুর,গ্রাম_1,4.56,নলকূপ,False,নিম্ন,"৫,০০,০০০ টাকা+",01469338116
F1180,কৃষক_181,খুলনা,শাজাহানপুর,গ্রাম_3,1.09,বৃষ্টিনির্ভর,True,নিম্ন,"৫,০০,০০০ টাকা+",01734087201
F1181,কৃষক_182,কুষ্টিয়া,বিশ্বম্ভরপুর,গ্রাম_3,2.84,পুকুর,True,নিম্ন,"৫,০০,০০০ টাকা+",01892494933
F1182,কৃষক_183,খুলনা,আগৈলঝারা,গ্রাম_2,6.71,বৃষ্টিনির্ভর,False,নিম্ন,"৫,০০,০০০ টাকা+",01807182910
F1183,কৃষক_184,বগুড়া,মিরপুর,গ্রাম_5,1.36,পুকুর,False,মধ্যম,"৫,০০,০০০ টাকা+",01799495364
F1184,কৃষক_185,বগুড়া,বিশ্বম্ভরপুর,গ্রাম_2,9.15,নলকূপ,True,মধ্যম,"২,০০,০০০ টাকা",01584465068
F1185,কৃষক_186,খুলনা,আগৈলঝারা,গ্রাম_5,9.58,পুকুর,True,মধ্যম,"১,০০,০০০ টাকা",01827339101
F1186,কৃষক_187,খুলনা,মিঠাপুকুর,গ্রাম_3,0.56,বৃষ্টিনির্ভর,False,উচ্চ,"১,০০,০০০ টাকা",01645346839
F1187,কৃষক_188,রংপুর,মিরপুর,গ্রাম_3,7.2,নদী,False,মধ্যম,"১,০০,০০০ টাকা",01993112934
F1188,কৃষক_189,খুলনা,চারঘাট,গ্রাম_4,6.14,বৃষ্টিনির্ভর,False,নিম্ন,"৫,০০,০০০ টাকা+",01424732562
F1189,কৃষক_190,রংপুর,বিশ্বম্ভরপুর,গ্রাম_5,8.82,পুকুর,False,নিম্ন,"৫,০০,০০০ টাকা+",01362699090
F1190,কৃষক_191,রাজশাহী,বিশ্বম্ভরপুর,গ্রাম_2,5.33,নদী,False,উচ্চ,"২,০০,০০০ টাকা",01656496896
F1191,কৃষক_192,রাজশাহী,মিরপুর,গ্রাম_4,2.23,নদী,True,নিম্ন,"১,০০,০০০ টাকা",01645125090
F1192,কৃষক_193,বরিশাল,শাজাহানপুর,গ্রাম_5,2.25,বৃষ্টিনির্ভর,True,উচ্চ,"৫০,০০০ টাকা",01478914223
F1193,কৃষক_194,ঢাকা,মিঠাপুকুর,গ্রাম_3,7.63,পাম্প,True,উচ্চ,"৫০,০০০ টাকা",01854753787
F1194,কৃষক_195,চট্টগ্রাম,আগৈলঝারা,গ্রাম_1,5.46,নলকূপ,True,উচ্চ,"১,০০,০০০ টাকা",01646170742
F1195,কৃষক_196,ময়মনসিংহ,বোয়ালখালী,গ্রাম_1,3.92,বৃষ্টিনির্ভর,False,উচ্চ,"১,০০,০০০ টাকা",01364092973
F1196,কৃষক_197,বগুড়া,ডুমুরিয়া,গ্রাম_5,2.61,পুকুর,False,নিম্ন,"২,০০,০০০ টাকা",01437692567
F1197,কৃষক_198,সিলেট,শাজাহানপুর,গ্রাম_3,3.52,নলকূপ,True,উচ্চ,"১,০০,০০০ টাকা",01849103078
F1198,কৃষক_199,খুলনা,শাজাহানপুর,গ্রাম_1,1.86,নলকূপ,False,নিম্ন,"৫,০০,০০০ টাকা+",01326637758
F1199,কৃষক_200,বগুড়া,গফরগাঁও,গ্রাম_1,1.46,নলকূপ,False,মধ্যম,"৫,০০,০০০ টাকা+",01844297391
F1200,কৃষক_201,সিলেট,শাজাহানপুর,গ্রাম_1,3.15,বৃষ্টিনির্ভর,True,মধ্যম,"৫,০০,০০০ টাকা+",01379340548
F1201,কৃষক_202,রাজশাহী,বিশ্বম্ভরপুর,গ্রাম_3,0.96,পাম্প,True,মধ্যম,"৫০,০০০ টাকা",01970282937
F1202,কৃষক_203,কুষ্টিয়া,মিরপুর,গ্রাম_1,8.57,পাম্প,True,মধ্যম,"৫,০০,০০০ টাকা+",01713579178
F1203,কৃষক_204,চট্টগ্রাম,বোয়ালখালী,গ্রাম_2,8.72,নদী,True,উচ্চ,"৫০,০০০ টাকা",01711036882
F1204,কৃষক_205,খুলনা,শাজাহানপুর,গ্রাম_4,7.58,বৃষ্টিনির্ভর,False,নিম্ন,"৫,০০,০০০ টাকা+",01659191033
F1205,কৃষক_206,ঢাকা,মিরপুর,গ্রাম_5,8.71,নদী,True,মধ্যম,"৫০,০০০ টাকা",01509298568
F1206,কৃষক_207,সিলেট,সদর,গ্রাম_5,6.82,বৃষ্টিনির্ভর,True,মধ্যম,"৫,০০,০০০ টাকা+",01720159063
F1207,কৃষক_208,চট্টগ্রাম,শাজাহানপুর,গ্রাম_1,3.39,পাম্প,False,মধ্যম,"৫০,০০০ টাকা",01314607491
F1208,কৃষক_209,বগুড়া,মিঠাপুকুর,গ্রাম_1,2.74,নলকূপ,False,উচ্চ,"৫০,০০০ টাকা",01854005475
F1209,কৃষক_210,সিলেট,মিরপুর,গ্রাম_3,3.86,পুকুর,False,নিম্ন,"৫০,০০০ টাকা",01908390406
F1210,কৃষক_211,কুষ্টিয়া,মিরপুর,গ্রাম_2,5.31,নলকূপ,False,নিম্ন,"২,০০,০০০ টাকা",01740047986
F1211,কৃষক_212,ঢাকা,বোয়ালখালী,গ্রাম_5,8.99,নলকূপ,True,নিম্ন,"২,০০,০০০ টাকা",01797878044
F1212,কৃষক_213,খুলনা,সদর,গ্রাম_5,4.88,বৃষ্টিনির্ভর,False,নিম্ন,"৫,০০,০০০ টাকা+",01606793323
F1213,কৃষক_214,বগুড়া,বিশ্বম্ভরপুর,গ্রাম_2,0.74,পুকুর,True,নিম্ন,"৫,০০,০০০ টাকা+",01449560872
F1214,কৃষক_215,চট্টগ্রাম,বোয়ালখালী,গ্রাম_2,9.16,নদী,True,মধ্যম,"১,০০,০০০ টাকা",01870181087
F1215,কৃষক_216,খুলনা,গফরগাঁও,গ্রাম_1,6.19,বৃষ্টিনির্ভর,True,উচ্চ,"১,০০,০০০ টাকা",01558208938
F1216,কৃষক_217,খুলনা,শাজাহানপুর,গ্রাম_2,5.28,পুকুর,True,নিম্ন,"৫০,০০০ টাকা",01982652804
F1217,কৃষক_218,চট্টগ্রাম,মিরপুর,গ্রাম_3,2.86,পুকুর,False,মধ্যম,"২,০০,০০০ টাকা",01877750360
F1218,কৃষক_219,কুষ্টিয়া,বোয়ালখালী,গ্রাম_1,8.65,বৃষ্টিনির্ভর,True,মধ্যম,"৫০,০০০ টাকা",01590550262
F1219,কৃষক_220,ঢাকা,গফরগাঁও,গ্রাম_1,9.58,নদী,True,নিম্ন,"৫,০০,০০০ টাকা+",01555336810
F1220,কৃষক_221,বরিশাল,ডুমুরিয়া,গ্রাম_4,6.72,নলকূপ,False,মধ্যম,"৫০,০০০ টাকা",01897409112
F1221,কৃষক_222,সিলেট,গফরগাঁও,গ্রাম_2,1.68,নলকূপ,False,উচ্চ,"২,০০,০০০ টাকা",01693509326
F1222,কৃষক_223,চট্টগ্রাম,মিরপুর,গ্রাম_4,6.22,বৃষ্টিনির্ভর,True,উচ্চ,"২,০০,০০০ টাকা",01641634247
F1223,কৃষক_224,কুষ্টিয়া,চারঘাট,গ্রাম_3,1.53,বৃষ্টিনির্ভর,False,মধ্যম,"৫,০০,০০০ টাকা+",01635543135
F1224,কৃষক_225,বগুড়া,মিরপুর,গ্রাম_4,2.71,পাম্প,True,মধ্যম,"২,০০,০০০ টাকা",01674360448
F1225,কৃষক_226,কুষ্টিয়া,সদর,গ্রাম_3,4.42,নলকূপ,True,নিম্ন,"২,০০,০০০ টাকা",01320740614
F1226,কৃষক_227,কুষ্টিয়া,মিরপুর,গ্রাম_1,7.14,পুকুর,True,মধ্যম,"১,০০,০০০ টাকা",01934528872
F1227,কৃষক_228,রাজশাহী,সদর,গ্রাম_1,7.87,নলকূপ,True,উচ্চ,"৫০,০০০ টাকা",01386924575
F1228,কৃষক_229,ময়মনসিংহ,মিরপুর,গ্রাম_2,4.36,পুকুর,True,মধ্যম,"৫,০০,০০০ টাকা+",01321329190
F1229,কৃষক_230,বগুড়া,মিরপুর,গ্রাম_4,6.57,নলকূপ,False,উচ্চ,"৫,০০,০০০ টাকা+",01908274249
F1230,কৃষক_231,বগুড়া,মিরপুর,গ্রাম_4,4.81,নলকূপ,True,উচ্চ,"২,০০,০০০ টাকা",01914952804
F1231,কৃষক_232,কুষ্টিয়া,শাজাহানপুর,গ্রাম_1,3.4,পাম্প,False,মধ্যম,"৫০,০০০ টাকা",01412212407
F1232,কৃষক_233,কুষ্টিয়া,বোয়ালখালী,গ্রাম_4,4.09,পুকুর,True,নিম্ন,"৫০,০০০ টাকা",01306728370
F1233,কৃষক_234,ঢাকা,বোয়ালখালী,গ্রাম_3,8.48,পুকুর,False,নিম্ন,"২,০০,০০০ টাকা",01496127308
F1234,কৃষক_235,খুলনা,মিরপুর,গ্রাম_3,6.28,নলকূপ,True,মধ্যম,"২,০০,০০০ টাকা",01844710988
F1235,কৃষক_236,বরিশাল,সদর,গ্রাম_2,6.49,পাম্প,False,মধ্যম,"১,০০,০০০ টাকা",01759150481
F1236,কৃষক_237,চট্টগ্রাম,চারঘাট,গ্রাম_1,9.52,নদী,True,উচ্চ,"৫০,০০০ টাকা",01819298626
F1237,কৃষক_238,রংপুর,চারঘাট,গ্রাম_1,6.23,নলকূপ,False,মধ্যম,"১,০০,০০০ টাকা",01510323868
F1238,কৃষক_239,চট্টগ্রাম,ডুমুরিয়া,গ্রাম_2,7.15,নদী,False,উচ্চ,"৫০,০০০ টাকা",01373394053
F1239,কৃষক_240,খুলনা,আগৈলঝারা,গ্রাম_3,9.33,পাম্প,False,মধ্যম,"১,০০,০০০ টাকা",01625878984
F1240,কৃষক_241,বগুড়া,আগৈলঝারা,গ্রাম_3,2.13,পুকুর,False,নিম্ন,"২,০০,০০০ টাকা",01430054079
F1241,কৃষক_242,বগুড়া,চারঘাট,গ্রাম_2,7.43,পাম্প,False,নিম্ন,"২,০০,০০০ টাকা",01470630392
F1242,কৃষক_243,রংপুর,বোয়ালখালী,গ্রাম_2,9.27,নলকূপ,False,উচ্চ,"৫,০০,০০০ টাকা+",01900510043
F1243,কৃষক_244,রাজশাহী,বিশ্বম্ভরপুর,গ্রাম_3,2.7,পাম্প,False,মধ্যম,"২,০০,০০০ টাকা",01508144853
F1244,কৃষক_245,সিলেট,গফরগাঁও,গ্রাম_2,0.81,বৃষ্টিনির্ভর,False,উচ্চ,"৫০,০০০ টাকা",01306665738
F1245,কৃষক_246,ময়মনসিংহ,বিশ্বম্ভরপুর,গ্রাম_3,0.7,পুকুর,True,উচ্চ,"৫,০০,০০০ টাকা+",01970279346
F1246,কৃষক_247,বগুড়া,আগৈলঝারা,গ্রাম_4,6.31,পুকুর,False,উচ্চ,"২,০০,০০০ টাকা",01998701111
F1247,কৃষক_248,খুলনা,শাজাহানপুর,গ্রাম_2,8.78,বৃষ্টিনির্ভর,False,মধ্যম,"৫,০০,০০০ টাকা+",01630074065
F1248,কৃষক_249,সিলেট,মিরপুর,গ্রাম_4,3.49,নদী,False,উচ্চ,"৫০,০০০ টাকা",01877421179
F1249,কৃষক_250,ময়মনসিংহ,বিশ্বম্ভরপুর,গ্রাম_1,3.14,পাম্প,True,মধ্যম,"৫,০০,০০০ টাকা+",01321852909
F1250,কৃষক_251,চট্টগ্রাম,গফরগাঁও,গ্রাম_2,8.39,পুকুর,False,মধ্যম,"১,০০,০০০ টাকা",01550576980
F1251,কৃষক_252,রাজশাহী,মিরপুর,গ্রাম_4,6.54,নদী,True,নিম্ন,"২,০০,০০০ টাকা",01964490570
F1252,কৃষক_253,কুষ্টিয়া,গফরগাঁও,গ্রাম_4,8.61,বৃষ্টিনির্ভর,False,মধ্যম,"৫০,০০০ টাকা",01871072915
F1253,কৃষক_254,রংপুর,আগৈলঝারা,গ্রাম_5,5.41,পুকুর,False,মধ্যম,"১,০০,০০০ টাকা",01700924155
F1254,কৃষক_255,রংপুর,বোয়ালখালী,গ্রাম_5,1.13,নদী,True,নিম্ন,"৫,০০,০০০ টাকা+",01329880792
F1255,কৃষক_256,বরিশাল,মিরপুর,গ্রাম_3,4.55,পুকুর,False,মধ্যম,"১,০০,০০০ টাকা",01718580933
F1256,কৃষক_257,খুলনা,আগৈলঝারা,গ্রাম_2,9.26,পুকুর,True,নিম্ন,"৫,০০,০০০ টাকা+",01371858696
F1257,কৃষক_258,ময়মনসিংহ,বিশ্বম্ভরপুর,গ্রাম_4,7.59,বৃষ্টিনির্ভর,True,মধ্যম,"৫০,০০০ টাকা",01636687859
F1258,কৃষক_259,কুষ্টিয়া,শাজাহানপুর,গ্রাম_5,7.26,পুকুর,False,মধ্যম,"৫০,০০০ টাকা",01425208182
F1259,কৃষক_260,চট্টগ্রাম,বোয়ালখালী,গ্রাম_3,8.74,নদী,True,মধ্যম,"৫০,০০০ টাকা",01719770144
F1260,কৃষক_261,কুষ্টিয়া,মিঠাপুকুর,গ্রাম_4,5.0,পুকুর,False,মধ্যম,"১,০০,০০০ টাকা",01865590692
F1261,কৃষক_262,খুলনা,গফরগাঁও,গ্রাম_5,8.82,পাম্প,False,উচ্চ,"৫০,০০০ টাকা",01940005761
F1262,কৃষক_263,রংপুর,গফরগাঁও,গ্রাম_5,7.88,নদী,True,নিম্ন,"৫,০০,০০০ টাকা+",01843525728
F1263,কৃষক_264,খুলনা,চারঘাট,গ্রাম_1,6.62,পুকুর,True,উচ্চ,"৫০,০০০ টাকা",01905003973
F1264,কৃষক_265,ঢাকা,সদর,গ্রাম_5,2.58,বৃষ্টিনির্ভর,True,মধ্যম,"৫০,০০০ টাকা",01780058218
F1265,কৃষক_266,খুলনা,মিঠাপুকুর,গ্রাম_2,6.02,পাম্প,True,নিম্ন,"২,০০,০০০ টাকা",01809781650
F1266,কৃষক_267,বগুড়া,চারঘাট,গ্রাম_1,4.44,বৃষ্টিনির্ভর,False,উচ্চ,"২,০০,০০০ টাকা",01749922321
F1267,কৃষক_268,বগুড়া,গফরগাঁও,গ্রাম_5,6.57,নলকূপ,False,উচ্চ,"৫,০০,০০০ টাকা+",01638238064
F1268,কৃষক_269,রংপুর,আগৈলঝারা,গ্রাম_4,1.6,পুকুর,False,উচ্চ,"৫,০০,০০০ টাকা+",01501263628
F1269,কৃষক_270,রংপুর,চারঘাট,গ্রাম_3,2.5,নলকূপ,False,উচ্চ,"১,০০,০০০ টাকা",01966072447
F1270,কৃষক_271,সিলেট,মিঠাপুকুর,গ্রাম_2,4.95,পাম্প,False,উচ্চ,"৫০,০০০ টাকা",01352479354
F1271,কৃষক_272,কুষ্টিয়া,বোয়ালখালী,গ্রাম_2,6.18,পাম্প,True,মধ্যম,"৫০,০০০ টাকা",01962112438
F1272,কৃষক_273,ঢাকা,বিশ্বম্ভরপুর,গ্রাম_4,8.06,নলকূপ,True,উচ্চ,"১,০০,০০০ টাকা",01992923252
F1273,কৃষক_274,রংপুর,মিরপুর,গ্রাম_1,3.92,নলকূপ,False,মধ্যম,"৫০,০০০ টাকা",01516994235
F1274,কৃষক_275,বগুড়া,শাজাহানপুর,গ্রাম_4,1.28,পাম্প,True,মধ্যম,"৫০,০০০ টাকা",01848106587
F1275,কৃষক_276,বগুড়া,চারঘাট,গ্রাম_1,2.15,বৃষ্টিনির্ভর,False,মধ্যম,"৫,০০,০০০ টাকা+",01464114370
F1276,কৃষক_277,বগুড়া,বিশ্বম্ভরপুর,গ্রাম_3,5.51,পুকুর,True,উচ্চ,"৫,০০,০০০ টাকা+",01502117864
F1277,কৃষক_278,চট্টগ্রাম,বোয়ালখালী,গ্রাম_3,9.65,পাম্প,True,নিম্ন,"৫,০০,০০০ টাকা+",01437134868
F1278,কৃষক_279,খুলনা,শাজাহানপুর,গ্রাম_4,1.82,পাম্প,False,নিম্ন,"১,০০,০০০ টাকা",01471984327
F1279,কৃষক_280,বগুড়া,গফরগাঁও,গ্রাম_3,5.0,পুকুর,False,উচ্চ,"২,০০,০০০ টাকা",01996024545
F1280,কৃষক_281,কুষ্টিয়া,সদর,গ্রাম_3,5.46,নলকূপ,False,উচ্চ,"২,০০,০০০ টাকা",01702397044
F1281,কৃষক_282,বগুড়া,মিরপুর,গ্রাম_2,3.52,পুকুর,False,মধ্যম,"৫,০০,০০০ টাকা+",01818111621
F1282,কৃষক_283,ঢাকা,চারঘাট,গ্রাম_5,0.68,নদী,True,মধ্যম,"১,০০,০০০ টাকা",01454482735
F1283,কৃষক_284,বরিশাল,বিশ্বম্ভরপুর,গ্রাম_2,4.74,নলকূপ,True,নিম্ন,"১,০০,০০০ টাকা",01304201520
F1284,কৃষক_285,কুষ্টিয়া,শাজাহানপুর,গ্রাম_1,7.39,নদী,True,মধ্যম,"৫,০০,০০০ টাকা+",01573800992
F1285,কৃষক_286,খুলনা,মিঠাপুকুর,গ্রাম_4,3.11,নদী,True,নিম্ন,"২,০০,০০০ টাকা",01917278342
F1286,কৃষক_287,সিলেট,মিঠাপুকুর,গ্রাম_1,3.49,পাম্প,False,মধ্যম,"৫,০০,০০০ টাকা+",01684389078
F1287,কৃষক_288,চট্টগ্রাম,বিশ্বম্ভরপুর,গ্রাম_2,4.19,নলকূপ,True,উচ্চ,"১,০০,০০০ টাকা",01986493143
F1288,কৃষক_289,বরিশাল,আগৈলঝারা,গ্রাম_1,3.1,পাম্প,True,মধ্যম,"২,০০,০০০ টাকা",01832909720
F1289,কৃষক_290,রংপুর,চারঘাট,গ্রাম_4,2.03,পুকুর,True,উচ্চ,"৫,০০,০০০ টাকা+",01843053461
F1290,কৃষক_291,রাজশাহী,মিরপুর,গ্রাম_1,8.38,নলকূপ,False,নিম্ন,"৫,০০,০০০ টাকা+",01532887832
F1291,কৃষক_292,সিলেট,চারঘাট,গ্রাম_3,6.26,নলকূপ,False,উচ্চ,"১,০০,০০০ টাকা",01383680633
F1292,কৃষক_293,রাজশাহী,শাজাহানপুর,গ্রাম_4,5.05,বৃষ্টিনির্ভর,False,মধ্যম,"২,০০,০০০ টাকা",01318443119
F1293,কৃষক_294,রংপুর,সদর,গ্রাম_2,2.45,বৃষ্টিনির্ভর,False,উচ্চ,"৫০,০০০ টাকা",01874458309
F1294,কৃষক_295,সিলেট,শাজাহানপুর,গ্রাম_4,1.82,নলকূপ,False,মধ্যম,"৫,০০,০০০ টাকা+",01751167367
F1295,কৃষক_296,খুলনা,বোয়ালখালী,গ্রাম_5,7.5,পাম্প,True,উচ্চ,"১,০০,০০০ টাকা",01949507309
F1296,কৃষক_297,ময়মনসিংহ,শাজাহানপুর,গ্রাম_4,1.64,নলকূপ,True,নিম্ন,"৫,০০,০০০ টাকা+",01823316436
F1297,কৃষক_298,রংপুর,সদর,গ্রাম_1,5.71,নদী,True,উচ্চ,"৫০,০০০ টাকা",01938676531
F1298,কৃষক_299,বগুড়া,শাজাহানপুর,গ্রাম_4,9.99,পাম্প,True,উচ্চ,"২,০০,০০০ টাকা",01429877830
F1299,কৃষক_300,খুলনা,ডুমুরিয়া,গ্রাম_5,2.61,নলকূপ,True,নিম্ন,"১,০০,০০০ টাকা",01379708194
F1300,কৃষক_301,চট্টগ্রাম,বিশ্বম্ভরপুর,গ্রাম_2,5.86,পুকুর,True,মধ্যম,"৫,০০,০০০ টাকা+",01722088328
F1301,কৃষক_302,খুলনা,বিশ্বম্ভরপুর,গ্রাম_3,9.0,বৃষ্টিনির্ভর,False,উচ্চ,"১,০০,০০০ টাকা",01534436863
F1302,কৃষক_303,ময়মনসিংহ,গফরগাঁও,গ্রাম_5,7.16,বৃষ্টিনির্ভর,True,উচ্চ,"২,০০,০০০ টাকা",01454193483
F1303,কৃষক_304,রংপুর,গফরগাঁও,গ্রাম_3,2.67,পাম্প,False,মধ্যম,"২,০০,০০০ টাকা",01550869087
F1304,কৃষক_305,চট্টগ্রাম,ডুমুরিয়া,গ্রাম_1,2.87,নদী,True,নিম্ন,"৫০,০০০ টাকা",01598845689
F1305,কৃষক_306,বরিশাল,গফরগাঁও,গ্রাম_2,4.89,নলকূপ,False,উচ্চ,"৫,০০,০০০ টাকা+",01921836799
F1306,কৃষক_307,সিলেট,বোয়ালখালী,গ্রাম_5,3.41,বৃষ্টিনির্ভর,True,নিম্ন,"৫০,০০০ টাকা",01495067170
F1307,কৃষক_308,সিলেট,চারঘাট,গ্রাম_4,6.05,বৃষ্টিনির্ভর,False,মধ্যম,"৫,০০,০০০ টাকা+",01780251578
F1308,কৃষক_309,কুষ্টিয়া,মিঠাপুকুর,গ্রাম_5,3.01,নলকূপ,True,মধ্যম,"২,০০,০০০ টাকা",01370620856
F1309,কৃষক_310,চট্টগ্রাম,মিঠাপুকুর,গ্রাম_4,8.05,পাম্প,True,উচ্চ,"১,০০,০০০ টাকা",01928264364
F1310,কৃষক_311,চট্টগ্রাম,বোয়ালখালী,গ্রাম_4,2.14,নলকূপ,True,মধ্যম,"১,০০,০০০ টাকা",01998154515
F1311,কৃষক_312,রংপুর,সদর,গ্রাম_4,4.09,নলকূপ,True,মধ্যম,"২,০০,০০০ টাকা",01361596983
F1312,কৃষক_313,বরিশাল,বোয়ালখালী,গ্রাম_4,6.97,পাম্প,True,নিম্ন,"৫,০০,০০০ টাকা+",01948832057
F1313,কৃষক_314,ময়মনসিংহ,বিশ্বম্ভরপুর,গ্রাম_1,9.71,বৃষ্টিনির্ভর,True,মধ্যম,"৫,০০,০০০ টাকা+",01871987471
F1314,কৃষক_315,বগুড়া,বোয়ালখালী,গ্রাম_2,1.19,পুকুর,False,মধ্যম,"৫০,০০০ টাকা",01697897092
F1315,কৃষক_316,কুষ্টিয়া,চারঘাট,গ্রাম_2,9.13,পাম্প,True,মধ্যম,"১,০০,০০০ টাকা",01808839629
F1316,কৃষক_317,বগুড়া,শাজাহানপুর,গ্রাম_5,5.16,নদী,False,উচ্চ,"২,০০,০০০ টাকা",01511307780
F1317,কৃষক_318,খুলনা,মিরপুর,গ্রাম_1,1.69,পাম্প,False,মধ্যম,"২,০০,০০০ টাকা",01417925743
F1318,কৃষক_319,বগুড়া,শাজাহানপুর,গ্রাম_5,6.82,নলকূপ,False,নিম্ন,"৫০,০০০ টাকা",01569157755
F1319,কৃষক_320,খুলনা,ডুমুরিয়া,গ্রাম_5,9.94,পুকুর,False,নিম্ন,"৫,০০,০০০ টাকা+",01994875095
F1320,কৃষক_321,ঢাকা,শাজাহানপুর,গ্রাম_5,3.91,নলকূপ,False,মধ্যম,"১,০০,০০০ টাকা",01744070720
F1321,কৃষক_322,সিলেট,আগৈলঝারা,গ্রাম_2,6.24,নলকূপ,True,মধ্যম,"১,০০,০০০ টাকা",01623788185
F1322,কৃষক_323,ময়মনসিংহ,শাজাহানপুর,গ্রাম_4,4.83,বৃষ্টিনির্ভর,True,উচ্চ,"২,০০,০০০ টাকা",01808872143
F1323,কৃষক_324,রাজশাহী,মিরপুর,গ্রাম_3,3.5,নদী,False,মধ্যম,"১,০০,০০০ টাকা",01878685332
F1324,কৃষক_325,খুলনা,মিরপুর,গ্রাম_2,7.49,নদী,True,উচ্চ,"১,০০,০০০ টাকা",01547399068
F1325,কৃষক_326,খুলনা,চারঘাট,গ্রাম_1,9.48,নদী,True,মধ্যম,"৫,০০,০০০ টাকা+",01847545524
F1326,কৃষক_327,ঢাকা,গফরগাঁও,গ্রাম_5,6.89,পাম্প,True,নিম্ন,"২,০০,০০০ টাকা",01371118350
F1327,কৃষক_328,বরিশাল,ডুমুরিয়া,গ্রাম_2,7.66,বৃষ্টিনির্ভর,False,উচ্চ,"২,০০,০০০ টাকা",01941470565
F1328,কৃষক_329,খুলনা,সদর,গ্রাম_4,4.06,নদী,False,উচ্চ,"১,০০,০০০ টাকা",01469907580
F1329,কৃষক_330,বগুড়া,শাজাহানপুর,গ্রাম_4,2.83,নদী,False,মধ্যম,"৫,০০,০০০ টাকা+",01495623222
F1330,কৃষক_331,কুষ্টিয়া,শাজাহানপুর,গ্রাম_3,2.39,নলকূপ,True,মধ্যম,"৫০,০০০ টাকা",01895806027
F1331,কৃষক_332,সিলেট,আগৈলঝারা,গ্রাম_4,3.41,পাম্প,False,উচ্চ,"২,০০,০০০ টাকা",01693104617
F1332,কৃষক_333,চট্টগ্রাম,শাজাহানপুর,গ্রাম_5,6.61,নদী,True,মধ্যম,"৫,০০,০০০ টাকা+",01348216903
F1333,কৃষক_334,বরিশাল,ডুমুরিয়া,গ্রাম_2,8.67,বৃষ্টিনির্ভর,False,উচ্চ,"৫০,০০০ টাকা",01380615140
F1334,কৃষক_335,বগুড়া,চারঘাট,গ্রাম_2,0.64,বৃষ্টিনির্ভর,True,উচ্চ,"২,০০,০০০ টাকা",01471927580
F1335,কৃষক_336,কুষ্টিয়া,বিশ্বম্ভরপুর,গ্রাম_2,1.09,নদী,False,নিম্ন,"৫,০০,০০০ টাকা+",01564736245
F1336,কৃষক_337,বগুড়া,চারঘাট,গ্রাম_5,3.26,পুকুর,False,মধ্যম,"১,০০,০০০ টাকা",01462999642
F1337,কৃষক_338,চট্টগ্রাম,সদর,গ্রাম_4,6.24,নলকূপ,True,নিম্ন,"২,০০,০০০ টাকা",01551856563
F1338,কৃষক_339,বরিশাল,গফরগাঁও,গ্রাম_4,3.06,নলকূপ,True,মধ্যম,"১,০০,০০০ টাকা",01810478663
F1339,কৃষক_340,ময়মনসিংহ,সদর,গ্রাম_2,5.71,পুকুর,False,নিম্ন,"১,০০,০০০ টাকা",01600541717
F1340,কৃষক_341,সিলেট,মিঠাপুকুর,গ্রাম_1,3.68,বৃষ্টিনির্ভর,True,নিম্ন,"৫০,০০০ টাকা",01840264978
F1341,কৃষক_342,সিলেট,ডুমুরিয়া,গ্রাম_5,2.69,বৃষ্টিনির্ভর,True,নিম্ন,"৫,০০,০০০ টাকা+",01609656148
F1342,কৃষক_343,বগুড়া,শাজাহানপুর,গ্রাম_1,7.33,পাম্প,False,নিম্ন,"৫০,০০০ টাকা",01488476560
F1343,কৃষক_344,ঢাকা,শাজাহানপুর,গ্রাম_3,7.95,বৃষ্টিনির্ভর,False,উচ্চ,"২,০০,০০০ টাকা",01620454825
F1344,কৃষক_345,ঢাকা,বোয়ালখালী,গ্রাম_2,1.65,নলকূপ,False,নিম্ন,"১,০০,০০০ টাকা",01834325852
F1345,কৃষক_346,সিলেট,বোয়ালখালী,গ্রাম_1,6.9,বৃষ্টিনির্ভর,False,নিম্ন,"৫০,০০০ টাকা",01910317296
F1346,কৃষক_347,সিলেট,আগৈলঝারা,গ্রাম_2,2.52,নদী,False,মধ্যম,"২,০০,০০০ টাকা",01911802865
F1347,কৃষক_348,রংপুর,সদর,গ্রাম_5,2.11,নদী,False,নিম্ন,"৫,০০,০০০ টাকা+",01683161582
F1348,কৃষক_349,কুষ্টিয়া,মিরপুর,গ্রাম_1,3.93,নলকূপ,True,মধ্যম,"৫০,০০০ টাকা",01307060321
F1349,কৃষক_350,ময়মনসিংহ,ডুমুরিয়া,গ্রাম_1,5.11,নলকূপ,False,নিম্ন,"৫,০০,০০০ টাকা+",01459156103
F1350,কৃষক_351,চট্টগ্রাম,আগৈলঝারা,গ্রাম_4,7.61,নলকূপ,True,মধ্যম,"২,০০,০০০ টাকা",01602423742
F1351,কৃষক_352,কুষ্টিয়া,সদর,গ্রাম_3,9.55,নলকূপ,False,উচ্চ,"২,০০,০০০ টাকা",01903473444
F1352,কৃষক_353,বগুড়া,বোয়ালখালী,গ্রাম_4,5.59,নলকূপ,False,উচ্চ,"১,০০,০০০ টাকা",01581587078
F1353,কৃষক_354,কুষ্টিয়া,শাজাহানপুর,গ্রাম_2,4.64,পাম্প,True,নিম্ন,"১,০০,০০০ টাকা",01770857481
F1354,কৃষক_355,চট্টগ্রাম,মিঠাপুকুর,গ্রাম_3,3.2,বৃষ্টিনির্ভর,True,উচ্চ,"৫,০০,০০০ টাকা+",01406773736
F1355,কৃষক_356,চট্টগ্রাম,সদর,গ্রাম_2,8.91,বৃষ্টিনির্ভর,False,উচ্চ,"৫,০০,০০০ টাকা+",01447598585
F1356,কৃষক_357,বরিশাল,শাজাহানপুর,গ্রাম_1,7.75,নদী,False,উচ্চ,"৫০,০০০ টাকা",01397586221
F1357,কৃষক_358,খুলনা,চারঘাট,গ্রাম_1,6.73,নদী,False,নিম্ন,"৫,০০,০০০ টাকা+",01940902215
F1358,কৃষক_359,কুষ্টিয়া,ডুমুরিয়া,গ্রাম_2,1.83,বৃষ্টিনির্ভর,True,উচ্চ,"৫০,০০০ টাকা",01517682331
F1359,কৃষক_360,চট্টগ্রাম,চারঘাট,গ্রাম_1,8.42,নদী,False,উচ্চ,"৫০,০০০ টাকা",01345607832
F1360,কৃষক_361,সিলেট,সদর,গ্রাম_4,5.8,পুকুর,False,নিম্ন,"১,০০,০০০ টাকা",01326429623
F1361,কৃষক_362,রাজশাহী,মিঠাপুকুর,গ্রাম_3,8.81,নদী,False,নিম্ন,"১,০০,০০০ টাকা",01616466091
F1362,কৃষক_363,কুষ্টিয়া,গফরগাঁও,গ্রাম_4,1.71,বৃষ্টিনির্ভর,True,নিম্ন,"২,০০,০০০ টাকা",01832286555
F1363,কৃষক_364,ময়মনসিংহ,চারঘাট,গ্রাম_1,8.17,পাম্প,True,উচ্চ,"২,০০,০০০ টাকা",01489349513
F1364,কৃষক_365,ঢাকা,আগৈলঝারা,গ্রাম_1,1.63,পুকুর,True,মধ্যম,"৫০,০০০ টাকা",01655392264
F1365,কৃষক_366,রাজশাহী,আগৈলঝারা,গ্রাম_1,4.95,পুকুর,False,উচ্চ,"২,০০,০০০ টাকা",01337431434
F1366,কৃষক_367,ময়মনসিংহ,মিরপুর,গ্রাম_4,2.63,পাম্প,True,মধ্যম,"১,০০,০০০ টাকা",01663429100
F1367,কৃষক_368,বরিশাল,সদর,গ্রাম_1,8.54,পাম্প,False,মধ্যম,"৫০,০০০ টাকা",01614692873
F1368,কৃষক_369,খুলনা,ডুমুরিয়া,গ্রাম_4,0.89,বৃষ্টিনির্ভর,False,মধ্যম,"১,০০,০০০ টাকা",01726472041
F1369,কৃষক_370,ময়মনসিংহ,মিঠাপুকুর,গ্রাম_1,0.97,নলকূপ,False,উচ্চ,"৫০,০০০ টাকা",01943376918
F1370,কৃষক_371,ঢাকা,শাজাহানপুর,গ্রাম_5,4.64,বৃষ্টিনির্ভর,True,মধ্যম,"৫০,০০০ টাকা",01913391576
F1371,কৃষক_372,কুষ্টিয়া,চারঘাট,গ্রাম_4,9.77,নলকূপ,False,মধ্যম,"৫,০০,০০০ টাকা+",01690799043
F1372,কৃষক_373,রংপুর,ডুমুরিয়া,গ্রাম_1,6.0,নলকূপ,False,উচ্চ,"৫০,০০০ টাকা",01977709669
F1373,কৃষক_374,রংপুর,শাজাহানপুর,গ্রাম_3,5.71,নলকূপ,False,মধ্যম,"২,০০,০০০ টাকা",01329146123
F1374,কৃষক_375,বরিশাল,মিরপুর,গ্রাম_4,3.69,নলকূপ,True,উচ্চ,"৫০,০০০ টাকা",01595570428
F1375,কৃষক_376,চট্টগ্রাম,মিঠাপুকুর,গ্রাম_5,1.27,পুকুর,True,উচ্চ,"১,০০,০০০ টাকা",01684934043
F1376,কৃষক_377,সিলেট,সদর,গ্রাম_4,0.94,পুকুর,False,মধ্যম,"২,০০,০০০ টাকা",01447271438
F1377,কৃষক_378,বরিশাল,চারঘাট,গ্রাম_2,4.05,পুকুর,False,মধ্যম,"৫,০০,০০০ টাকা+",01761984611
F1378,কৃষক_379,সিলেট,মিঠাপুকুর,গ্রাম_2,9.67,পুকুর,True,নিম্ন,"৫০,০০০ টাকা",01356107751
F1379,কৃষক_380,রংপুর,ডুমুরিয়া,গ্রাম_2,7.64,নদী,True,মধ্যম,"১,০০,০০০ টাকা",01620263521
F1380,কৃষক_381,সিলেট,গফরগাঁও,গ্রাম_5,4.72,নলকূপ,False,উচ্চ,"২,০০,০০০ টাকা",01931350602
F1381,কৃষক_382,বগুড়া,চারঘাট,গ্রাম_1,6.58,পাম্প,True,নিম্ন,"৫০,০০০ টাকা",01767652735
F1382,কৃষক_383,রংপুর,চারঘাট,গ্রাম_5,1.49,নলকূপ,True,মধ্যম,"২,০০,০০০ টাকা",01459808237
F1383,কৃষক_384,বগুড়া,বিশ্বম্ভরপুর,গ্রাম_5,9.68,পাম্প,False,মধ্যম,"৫০,০০০ টাকা",01700370265
F1384,কৃষক_385,ঢাকা,শাজাহানপুর,গ্রাম_3,5.35,নলকূপ,True,উচ্চ,"২,০০,০০০ টাকা",01912531848
F1385,কৃষক_386,কুষ্টিয়া,মিরপুর,গ্রাম_2,4.26,পাম্প,False,উচ্চ,"৫০,০০০ টাকা",01838912444
F1386,কৃষক_387,বগুড়া,বোয়ালখালী,গ্রাম_5,6.92,পাম্প,False,উচ্চ,"২,০০,০০০ টাকা",01385023264
F1387,কৃষক_388,ঢাকা,শাজাহানপুর,গ্রাম_2,8.9,নলকূপ,True,উচ্চ,"১,০০,০০০ টাকা",01809651564
F1388,কৃষক_389,বরিশাল,ডুমুরিয়া,গ্রাম_3,5.93,পুকুর,True,নিম্ন,"৫,০০,০০০ টাকা+",01801185514
F1389,কৃষক_390,ঢাকা,আগৈলঝারা,গ্রাম_2,0.55,পুকুর,True,মধ্যম,"১,০০,০০০ টাকা",01565688220
F1390,কৃষক_391,ঢাকা,আগৈলঝারা,গ্রাম_3,7.85,পুকুর,False,নিম্ন,"৫,০০,০০০ টাকা+",01967027517
F1391,কৃষক_392,বরিশাল,আগৈলঝারা,গ্রাম_5,2.64,পুকুর,True,উচ্চ,"৫০,০০০ টাকা",01624989144
F1392,কৃষক_393,বগুড়া,ডুমুরিয়া,গ্রাম_5,1.4,নলকূপ,False,নিম্ন,"১,০০,০০০ টাকা",01897263543
F1393,কৃষক_394,রাজশাহী,আগৈলঝারা,গ্রাম_2,8.48,নদী,False,মধ্যম,"২,০০,০০০ টাকা",01429357328
F1394,কৃষক_395,চট্টগ্রাম,গফরগাঁও,গ্রাম_2,6.48,বৃষ্টিনির্ভর,False,নিম্ন,"৫০,০০০ টাকা",01517698522
F1395,কৃষক_396,বরিশাল,গফরগাঁও,গ্রাম_2,6.85,বৃষ্টিনির্ভর,True,নিম্ন,"৫,০০,০০০ টাকা+",01661291626
F1396,কৃষক_397,ঢাকা,গফরগাঁও,গ্রাম_3,2.19,বৃষ্টিনির্ভর,True,উচ্চ,"২,০০,০০০ টাকা",01440744398
F1397,কৃষক_398,চট্টগ্রাম,মিরপুর,গ্রাম_1,7.33,পুকুর,False,নিম্ন,"১,০০,০০০ টাকা",01615286771
F1398,কৃষক_399,রাজশাহী,বিশ্বম্ভরপুর,গ্রাম_3,7.59,বৃষ্টিনির্ভর,True,মধ্যম,"৫০,০০০ টাকা",01333996884
F1399,কৃষক_400,রংপুর,মিঠাপুকুর,গ্রাম_3,6.65,নদী,True,মধ্যম,"৫০,০০০ টাকা",01971491619
F1400,কৃষক_401,ময়মনসিংহ,চারঘাট,গ্রাম_1,2.68,বৃষ্টিনির্ভর,True,উচ্চ,"১,০০,০০০ টাকা",01925086717
F1401,কৃষক_402,বগুড়া,ডুমুরিয়া,গ্রাম_1,7.52,বৃষ্টিনির্ভর,False,মধ্যম,"৫,০০,০০০ টাকা+",01855545613
F1402,কৃষক_403,কুষ্টিয়া,মিরপুর,গ্রাম_2,1.96,বৃষ্টিনির্ভর,True,উচ্চ,"১,০০,০০০ টাকা",01860378244
F1403,কৃষক_404,ময়মনসিংহ,বিশ্বম্ভরপুর,গ্রাম_2,5.87,নলকূপ,True,নিম্ন,"১,০০,০০০ টাকা",01566703493
F1404,কৃষক_405,বরিশাল,গফরগাঁও,গ্রাম_1,4.89,নদী,True,উচ্চ,"৫০,০০০ টাকা",01310570786
F1405,কৃষক_406,রংপুর,চারঘাট,গ্রাম_5,7.89,নলকূপ,False,মধ্যম,"২,০০,০০০ টাকা",01973926907
F1406,কৃষক_407,রাজশাহী,বোয়ালখালী,গ্রাম_5,0.86,বৃষ্টিনির্ভর,True,উচ্চ,"২,০০,০০০ টাকা",01508564216
F1407,কৃষক_408,ঢাকা,ডুমুরিয়া,গ্রাম_2,3.18,বৃষ্টিনির্ভর,False,মধ্যম,"২,০০,০০০ টাকা",01506475577
F1408,কৃষক_409,বগুড়া,চারঘাট,গ্রাম_5,0.54,পুকুর,False,উচ্চ,"৫,০০,০০০ টাকা+",01781313988
F1409,কৃষক_410,ময়মনসিংহ,ডুমুরিয়া,গ্রাম_1,2.43,পাম্প,True,মধ্যম,"২,০০,০০০ টাকা",01302995705
F1410,কৃষক_411,কুষ্টিয়া,সদর,গ্রাম_2,1.61,পুকুর,True,উচ্চ,"২,০০,০০০ টাকা",01664143046
F1411,কৃষক_412,চট্টগ্রাম,মিঠাপুকুর,গ্রাম_1,4.81,নদী,False,মধ্যম,"৫,০০,০০০ টাকা+",01805473717
F1412,কৃষক_413,ময়মনসিংহ,আগৈলঝারা,গ্রাম_1,9.21,নলকূপ,True,মধ্যম,"৫০,০০০ টাকা",01390072487
F1413,কৃষক_414,ঢাকা,ডুমুরিয়া,গ্রাম_1,9.55,পুকুর,True,মধ্যম,"৫,০০,০০০ টাকা+",01950836432
F1414,কৃষক_415,সিলেট,মিঠাপুকুর,গ্রাম_2,8.11,পাম্প,True,মধ্যম,"৫,০০,০০০ টাকা+",01723035334
F1415,কৃষক_416,বগুড়া,শাজাহানপুর,গ্রাম_2,8.1,নদী,True,মধ্যম,"৫০,০০০ টাকা",01454657963
F1416,কৃষক_417,ময়মনসিংহ,মিঠাপুকুর,গ্রাম_5,2.56,পাম্প,False,মধ্যম,"৫,০০,০০০ টাকা+",01908935930
F1417,কৃষক_418,বগুড়া,ডুমুরিয়া,গ্রাম_5,5.92,পুকুর,False,মধ্যম,"৫,০০,০০০ টাকা+",01456518726
F1418,কৃষক_419,বরিশাল,বোয়ালখালী,গ্রাম_2,8.39,পাম্প,True,মধ্যম,"২,০০,০০০ টাকা",01644444711
F1419,কৃষক_420,রংপুর,মিরপুর,গ্রাম_1,0.68,নদী,False,মধ্যম,"৫০,০০০ টাকা",01347538498
F1420,কৃষক_421,খুলনা,আগৈলঝারা,গ্রাম_3,0.68,পুকুর,False,মধ্যম,"২,০০,০০০ টাকা",01766841549
F1421,কৃষক_422,বরিশাল,শাজাহানপুর,গ্রাম_4,2.97,পুকুর,True,নিম্ন,"১,০০,০০০ টাকা",01519694960
F1422,কৃষক_423,ঢাকা,মিরপুর,গ্রাম_5,6.79,পাম্প,False,নিম্ন,"১,০০,০০০ টাকা",01677040434
F1423,কৃষক_424,সিলেট,বোয়ালখালী,গ্রাম_1,2.76,বৃষ্টিনির্ভর,True,উচ্চ,"৫,০০,০০০ টাকা+",01508061769
F1424,কৃষক_425,ঢাকা,বিশ্বম্ভরপুর,গ্রাম_2,1.48,বৃষ্টিনির্ভর,True,মধ্যম,"৫০,০০০ টাকা",01792677759
F1425,কৃষক_426,ময়মনসিংহ,মিরপুর,গ্রাম_1,6.97,পাম্প,True,উচ্চ,"৫,০০,০০০ টাকা+",01710380891
F1426,কৃষক_427,চট্টগ্রাম,গফরগাঁও,গ্রাম_5,9.25,বৃষ্টিনির্ভর,True,নিম্ন,"৫০,০০০ টাকা",01415996794
F1427,কৃষক_428,ঢাকা,মিরপুর,গ্রাম_2,3.21,বৃষ্টিনির্ভর,False,নিম্ন,"৫০,০০০ টাকা",01572682646
F1428,কৃষক_429,বরিশাল,শাজাহানপুর,গ্রাম_2,7.56,নদী,True,উচ্চ,"৫০,০০০ টাকা",01950545126
F1429,কৃষক_430,রাজশাহী,মিঠাপুকুর,গ্রাম_2,3.19,পুকুর,True,উচ্চ,"২,০০,০০০ টাকা",01663266751
F1430,কৃষক_431,ময়মনসিংহ,বোয়ালখালী,গ্রাম_2,2.97,পুকুর,True,নিম্ন,"৫০,০০০ টাকা",01667943968
F1431,কৃষক_432,কুষ্টিয়া,ডুমুরিয়া,গ্রাম_2,6.79,বৃষ্টিনির্ভর,False,উচ্চ,"৫০,০০০ টাকা",01533853174
F1432,কৃষক_433,ঢাকা,চারঘাট,গ্রাম_4,3.78,পুকুর,False,মধ্যম,"২,০০,০০০ টাকা",01694637368
F1433,কৃষক_434,রাজশাহী,আগৈলঝারা,গ্রাম_5,0.86,নলকূপ,True,উচ্চ,"১,০০,০০০ টাকা",01987405347
F1434,কৃষক_435,খুলনা,ডুমুরিয়া,গ্রাম_4,6.66,বৃষ্টিনির্ভর,False,নিম্ন,"২,০০,০০০ টাকা",01688494272
F1435,কৃষক_436,বগুড়া,বোয়ালখালী,গ্রাম_2,5.28,নলকূপ,False,মধ্যম,"৫০,০০০ টাকা",01393994564
F1436,কৃষক_437,সিলেট,গফরগাঁও,গ্রাম_5,5.41,পুকুর,True,মধ্যম,"৫০,০০০ টাকা",01881285261
F1437,কৃষক_438,সিলেট,চারঘাট,গ্রাম_5,9.65,পুকুর,True,উচ্চ,"৫,০০,০০০ টাকা+",01747629342
F1438,কৃষক_439,বগুড়া,মিঠাপুকুর,গ্রাম_3,9.1,নলকূপ,True,উচ্চ,"২,০০,০০০ টাকা",01494214151
F1439,কৃষক_440,রাজশাহী,মিরপুর,গ্রাম_2,9.22,বৃষ্টিনির্ভর,False,নিম্ন,"৫,০০,০০০ টাকা+",01600225871
F1440,কৃষক_441,সিলেট,সদর,গ্রাম_2,1.02,পুকুর,False,উচ্চ,"২,০০,০০০ টাকা",01766380862
F1441,কৃষক_442,ময়মনসিংহ,ডুমুরিয়া,গ্রাম_4,2.45,নলকূপ,False,উচ্চ,"৫,০০,০০০ টাকা+",01695661403
F1442,কৃষক_443,চট্টগ্রাম,শাজাহানপুর,গ্রাম_2,5.19,বৃষ্টিনির্ভর,False,উচ্চ,"২,০০,০০০ টাকা",01577935718
F1443,কৃষক_444,চট্টগ্রাম,শাজাহানপুর,গ্রাম_2,3.94,পুকুর,True,মধ্যম,"২,০০,০০০ টাকা",01683875137
F1444,কৃষক_445,চট্টগ্রাম,ডুমুরিয়া,গ্রাম_5,6.68,বৃষ্টিনির্ভর,False,উচ্চ,"২,০০,০০০ টাকা",01460601699
F1445,কৃষক_446,রাজশাহী,শাজাহানপুর,গ্রাম_4,1.6,নলকূপ,True,মধ্যম,"১,০০,০০০ টাকা",01637151888
F1446,কৃষক_447,কুষ্টিয়া,ডুমুরিয়া,গ্রাম_5,7.09,পাম্প,False,মধ্যম,"২,০০,০০০ টাকা",01834922198
F1447,কৃষক_448,বগুড়া,ডুমুরিয়া,গ্রাম_2,0.66,বৃষ্টিনির্ভর,False,নিম্ন,"৫,০০,০০০ টাকা+",01862463369
F1448,কৃষক_449,চট্টগ্রাম,শাজাহানপুর,গ্রাম_1,3.91,বৃষ্টিনির্ভর,False,নিম্ন,"৫,০০,০০০ টাকা+",01694997286
F1449,কৃষক_450,কুষ্টিয়া,গফরগাঁও,গ্রাম_3,4.76,পুকুর,False,নিম্ন,"২,০০,০০০ টাকা",01321144165
F1450,কৃষক_451,কুষ্টিয়া,মিরপুর,গ্রাম_1,7.13,পাম্প,False,নিম্ন,"৫০,০০০ টাকা",01698676561
F1451,কৃষক_452,খুলনা,বোয়ালখালী,গ্রাম_4,9.53,নদী,False,মধ্যম,"২,০০,০০০ টাকা",01819901468
F1452,কৃষক_453,বরিশাল,ডুমুরিয়া,গ্রাম_3,7.31,বৃষ্টিনির্ভর,False,উচ্চ,"১,০০,০০০ টাকা",01688280129
F1453,কৃষক_454,ময়মনসিংহ,বিশ্বম্ভরপুর,গ্রাম_2,3.78,নদী,True,উচ্চ,"২,০০,০০০ টাকা",01895988477
F1454,কৃষক_455,কুষ্টিয়া,চারঘাট,গ্রাম_4,7.92,নলকূপ,True,মধ্যম,"১,০০,০০০ টাকা",01661134091
F1455,কৃষক_456,ঢাকা,চারঘাট,গ্রাম_1,5.37,পুকুর,False,নিম্ন,"৫,০০,০০০ টাকা+",01764655439
F1456,কৃষক_457,ঢাকা,চারঘাট,গ্রাম_2,7.73,পাম্প,True,নিম্ন,"১,০০,০০০ টাকা",01856832496
F1457,কৃষক_458,বগুড়া,চারঘাট,গ্রাম_3,3.06,পাম্প,False,উচ্চ,"১,০০,০০০ টাকা",01510440745
F1458,কৃষক_459,রাজশাহী,চারঘাট,গ্রাম_4,7.01,নদী,True,উচ্চ,"৫০,০০০ টাকা",01995206384
F1459,কৃষক_460,বরিশাল,মিঠাপুকুর,গ্রাম_4,7.2,পাম্প,False,নিম্ন,"২,০০,০০০ টাকা",01534374261
F1460,কৃষক_461,বগুড়া,সদর,গ্রাম_2,7.45,নদী,False,উচ্চ,"৫০,০০০ টাকা",01461468977
F1461,কৃষক_462,বরিশাল,মিঠাপুকুর,গ্রাম_3,9.1,পুকুর,False,মধ্যম,"৫,০০,০০০ টাকা+",01568324402
F1462,কৃষক_463,রাজশাহী,শাজাহানপুর,গ্রাম_5,6.84,নদী,False,উচ্চ,"৫,০০,০০০ টাকা+",01948325415
F1463,কৃষক_464,খুলনা,সদর,গ্রাম_3,1.22,বৃষ্টিনির্ভর,True,মধ্যম,"৫,০০,০০০ টাকা+",01791268239
F1464,কৃষক_465,চট্টগ্রাম,শাজাহানপুর,গ্রাম_5,8.77,নদী,True,উচ্চ,"৫০,০০০ টাকা",01396284952
F1465,কৃষক_466,ঢাকা,শাজাহানপুর,গ্রাম_3,4.87,পুকুর,False,মধ্যম,"৫,০০,০০০ টাকা+",01702542088
F1466,কৃষক_467,কুষ্টিয়া,বিশ্বম্ভরপুর,গ্রাম_3,7.41,পাম্প,False,মধ্যম,"৫,০০,০০০ টাকা+",01359770514
F1467,কৃষক_468,খুলনা,বিশ্বম্ভরপুর,গ্রাম_5,3.37,বৃষ্টিনির্ভর,False,উচ্চ,"৫০,০০০ টাকা",01691818347
F1468,কৃষক_469,বগুড়া,সদর,গ্রাম_5,3.51,পুকুর,True,মধ্যম,"১,০০,০০০ টাকা",01717154179
F1469,কৃষক_470,বগুড়া,আগৈলঝারা,গ্রাম_1,0.79,বৃষ্টিনির্ভর,True,উচ্চ,"৫,০০,০০০ টাকা+",01786870392
F1470,কৃষক_471,রাজশাহী,ডুমুরিয়া,গ্রাম_3,4.21,বৃষ্টিনির্ভর,False,উচ্চ,"১,০০,০০০ টাকা",01820224935
F1471,কৃষক_472,সিলেট,চারঘাট,গ্রাম_3,2.89,নলকূপ,False,মধ্যম,"১,০০,০০০ টাকা",01708767569
F1472,কৃষক_473,খুলনা,চারঘাট,গ্রাম_5,8.2,পুকুর,False,উচ্চ,"২,০০,০০০ টাকা",01397556543
F1473,কৃষক_474,ঢাকা,ডুমুরিয়া,গ্রাম_1,7.24,বৃষ্টিনির্ভর,False,উচ্চ,"৫,০০,০০০ টাকা+",01518777700
F1474,কৃষক_475,বগুড়া,ডুমুরিয়া,গ্রাম_5,5.82,বৃষ্টিনির্ভর,True,নিম্ন,"৫,০০,০০০ টাকা+",01709571048
F1475,কৃষক_476,রংপুর,ডুমুরিয়া,গ্রাম_3,2.16,নলকূপ,False,মধ্যম,"৫,০০,০০০ টাকা+",01976346209
F1476,কৃষক_477,খুলনা,গফরগাঁও,গ্রাম_1,8.38,বৃষ্টিনির্ভর,True,উচ্চ,"৫০,০০০ টাকা",01425251424
F1477,কৃষক_478,কুষ্টিয়া,শাজাহানপুর,গ্রাম_3,8.32,বৃষ্টিনির্ভর,False,নিম্ন,"২,০০,০০০ টাকা",01969099431
F1478,কৃষক_479,রংপুর,আগৈলঝারা,গ্রাম_4,4.5,পাম্প,False,মধ্যম,"৫০,০০০ টাকা",01738753222
F1479,কৃষক_480,ঢাকা,বিশ্বম্ভরপুর,গ্রাম_5,5.16,বৃষ্টিনির্ভর,True,মধ্যম,"৫০,০০০ টাকা",01971394291
F1480,কৃষক_481,রাজশাহী,শাজাহানপুর,গ্রাম_1,5.58,নদী,False,মধ্যম,"৫,০০,০০০ টাকা+",01393368475
F1481,কৃষক_482,ঢাকা,চারঘাট,গ্রাম_3,3.54,বৃষ্টিনির্ভর,False,মধ্যম,"৫০,০০০ টাকা",01942856674
F1482,কৃষক_483,বগুড়া,আগৈলঝারা,গ্রাম_5,3.25,পুকুর,False,নিম্ন,"৫০,০০০ টাকা",01476400696
F1483,কৃষক_484,বগুড়া,বিশ্বম্ভরপুর,গ্রাম_4,9.04,বৃষ্টিনির্ভর,False,মধ্যম,"৫,০০,০০০ টাকা+",01560304962
F1484,কৃষক_485,চট্টগ্রাম,চারঘাট,গ্রাম_4,6.32,পাম্প,False,মধ্যম,"৫,০০,০০০ টাকা+",01499618545
F1485,কৃষক_486,ঢাকা,মিরপুর,গ্রাম_5,9.34,পুকুর,True,মধ্যম,"৫০,০০০ টাকা",01897472005
F1486,কৃষক_487,বরিশাল,আগৈলঝারা,গ্রাম_1,5.36,বৃষ্টিনির্ভর,True,মধ্যম,"১,০০,০০০ টাকা",01416052046
F1487,কৃষক_488,রংপুর,সদর,গ্রাম_1,8.74,নলকূপ,False,মধ্যম,"৫০,০০০ টাকা",01530478673
F1488,কৃষক_489,বরিশাল,মিঠাপুকুর,গ্রাম_1,8.0,নলকূপ,True,নিম্ন,"৫,০০,০০০ টাকা+",01526153168
F1489,কৃষক_490,ঢাকা,মিঠাপুকুর,গ্রাম_4,0.82,বৃষ্টিনির্ভর,False,উচ্চ,"৫০,০০০ টাকা",01897438608
F1490,কৃষক_491,ঢাকা,বোয়ালখালী,গ্রাম_1,7.75,নলকূপ,False,উচ্চ,"১,০০,০০০ টাকা",01960350715
F1491,কৃষক_492,সিলেট,বোয়ালখালী,গ্রাম_4,7.23,বৃষ্টিনির্ভর,False,উচ্চ,"১,০০,০০০ টাকা",01426748644
F1492,কৃষক_493,বগুড়া,মিরপুর,গ্রাম_5,3.87,নলকূপ,False,উচ্চ,"৫০,০০০ টাকা",01360494762
F1493,কৃষক_494,ঢাকা,শাজাহানপুর,গ্রাম_1,8.1,বৃষ্টিনির্ভর,True,মধ্যম,"৫,০০,০০০ টাকা+",01853651331
F1494,কৃষক_495,সিলেট,বোয়ালখালী,গ্রাম_5,8.78,বৃষ্টিনির্ভর,False,নিম্ন,"৫০,০০০ টাকা",01777859641
F1495,কৃষক_496,কুষ্টিয়া,মিরপুর,গ্রাম_3,7.88,পাম্প,False,উচ্চ,"১,০০,০০০ টাকা",01756037180
F1496,কৃষক_497,চট্টগ্রাম,গফরগাঁও,গ্রাম_3,0.68,পাম্প,True,উচ্চ,"৫,০০,০০০ টাকা+",01683125629
F1497,কৃষক_498,খুলনা,মিরপুর,গ্রাম_5,1.9,পাম্প,False,মধ্যম,"৫০,০০০ টাকা",01992087951
F1498,কৃষক_499,বগুড়া,আগৈলঝারা,গ্রাম_2,7.65,বৃষ্টিনির্ভর,True,নিম্ন,"২,০০,০০০ টাকা",01996208644
F1499,কৃষক_500,বরিশাল,আগৈলঝারা,গ্রাম_3,3.66,পাম্প,True,নিম্ন,"২,০০,০০০ টাকা",01446691575
